satNo,name,line1,line2,inclination,apogee,raan,argument_of_perigee,eccentricity,mean_motion,hdbscan_labels
55637,STARLINK-5062,1 55637U 23021K   26027.13166405  .00000447  00000-0  45246-4 0  9997,2 55637  69.9993 289.3504 0002990 266.4091  93.6726 14.98327892162568,69.9993,581.2775193916866,289.3504,266.4091,0.000299,14.98327892,74
55638,STARLINK-5507,1 55638U 23021L   26027.12771520  .00000961  00000-0  88355-4 0  9996,2 55638  70.0010 309.2068 0002982 270.2244  89.8574 14.98330118162072,70.001,581.2650734504368,309.2068,270.2244,0.0002982,14.98330118,29
55639,STARLINK-5508,1 55639U 23021M   26027.25001157 -.00008426  00000-0 -69904-3 0  9997,2 55639  70.0009 288.9267 0003054 275.2509 114.6649 14.98341045  5814,70.0009,581.281313880628,288.9267,275.2509,0.0003054,14.98341045,50
55640,STARLINK-5069,1 55640U 23021N   26027.10662187 -.00000132  00000-0 -32599-5 0  9997,2 55640  70.0018 289.2623 0002971 269.2397  90.8421 14.98327266162569,70.0018,581.2662504465263,289.2623,269.2397,0.0002971,14.98327266,73
55641,STARLINK-5065,1 55641U 23021P   26027.13584154  .00001211  00000-0  10929-3 0  9996,2 55641  70.0003 289.3621 0002629 269.6518  90.4340 14.98327869162567,70.0003,581.0266883374649,289.3621,269.6518,0.0002629,14.98327869,74
55643,STARLINK-5483,1 55643U 23021R   26027.14418478  .00000342  00000-0  36495-4 0  9995,2 55643  70.0006 289.3892 0002950 269.7513  90.3308 14.98327929162565,70.0006,581.2496041405797,289.3892,269.7513,0.000295,14.98327929,74
55644,STARLINK-5502,1 55644U 23021S   26027.12331766  .00000016  00000-0  91022-5 0  9994,2 55644  70.0005 289.3231 0002642 264.7258  95.3600 14.98328077162566,70.0005,581.0350802025572,289.3231,264.7258,0.0002642,14.98328077,74
55647,STARLINK-5510,1 55647U 23021V   26027.15668325  .00001198  00000-0  10814-3 0  9994,2 55647  69.9998 289.0348 0002938 269.9680  90.1142 14.98329054162578,69.9998,581.2377839037664,289.0348,269.968,0.0002938,14.98329054,50
55648,STARLINK-5501,1 55648U 23021W   26027.11914753  .00000306  00000-0  33436-4 0  9996,2 55648  70.0003 289.3065 0002741 279.8376  80.2473 14.98319033162564,70.0003,581.1318628615486,289.3065,279.8376,0.0002741,14.98319033,74
55649,STARLINK-5469,1 55649U 23021X   26027.09826990  .00000451  00000-0  45584-4 0  9997,2 55649  70.0020 289.2314 0002718 273.1686  86.9162 14.98332834162567,70.002,581.0731870927364,289.2314,273.1686,0.0002718,14.98332834,73
55650,STARLINK-5494,1 55650U 23021Y   26027.04403482  .00000242  00000-0  28074-4 0  9994,2 55650  70.0008 289.4472 0002969 266.1605  93.9215 14.98329322162557,70.0008,581.258500496096,289.4472,266.1605,0.0002969,14.98329322,-1
55651,STARLINK-5506,1 55651U 23021Z   26027.12746760  .00002551  00000-0  22138-3 0  9992,2 55651  69.9985 289.3365 0003073 269.2073  90.8734 14.98358426162569,69.9985,581.2407545366119,289.3365,269.2073,0.0003073,14.98358426,74
55652,STARLINK-5487,1 55652U 23021AA  26027.10244531 -.00000001  00000-0  77329-5 0  9993,2 55652  70.0012 289.2489 0002867 273.2624  86.8207 14.98329707162567,70.0012,581.1864175844975,289.2489,273.2624,0.0002867,14.98329707,73
55653,STARLINK-5067,1 55653U 23021AB  26027.15250790  .00001719  00000-0  15184-3 0  9998,2 55653  69.9995 289.0191 0003397 271.5620  88.5150 14.98323214162573,69.9995,581.574863822572,289.0191,271.562,0.0003397,14.98323214,50
55654,STARLINK-5070,1 55654U 23021AC  26027.14000021  .00000415  00000-0  42567-4 0  9996,2 55654  70.0014 289.3805 0002962 268.4794  91.6026 14.98338221162568,70.0014,581.2261079004155,289.3805,268.4794,0.0002962,14.98338221,74
55655,STARLINK-5267,1 55655U 23021AD  26026.64325231 -.00000539  00000-0 -37369-4 0  9997,2 55655  69.9989 270.5802 0003004 268.8986  91.1829 14.98337452162977,69.9989,581.2576773664839,270.5802,268.8986,0.0003004,14.98337452,87
55657,STARLINK-5328,1 55657U 23021AF  26027.18584385  .00006797  00000-0  57916-3 0  9995,2 55657  69.9997 269.2619 0001546 271.8627  88.2355 14.98175947163065,69.9997,580.7439014386777,269.2619,271.8627,0.0001546,14.98175947,135
55658,STARLINK-5307,1 55658U 23021AG  26027.16085284  .00000303  00000-0  33169-4 0  9990,2 55658  69.9990 289.0497 0003213 256.9062 103.1739 14.98330918162572,69.999,581.4231481703306,289.0497,256.9062,0.0003213,14.98330918,50
55659,STARLINK-5477,1 55659U 23021AH  26027.31510146 -.00004184  00000-0 -34313-3 0  9992,2 55659  70.0024 268.9101 0002643 291.8835  68.2043 14.98323837163071,70.0024,581.0488905971274,268.9101,291.8835,0.0002643,14.98323837,72
55660,STARLINK-5467,1 55660U 23021AJ  26026.66409659  .00000051  00000-0  12059-4 0  9998,2 55660  69.9988 270.2586 0003023 268.8727  91.2086 14.98324764162992,69.9988,581.3101310954047,270.2586,268.8727,0.0003023,14.98324764,86
55661,STARLINK-5475,1 55661U 23021AK  26026.63072783  .00001570  00000-0  13942-3 0  9998,2 55661  69.9985 270.5369 0003099 279.7727  80.3082 14.98309308162987,69.9985,581.410764591041,270.5369,279.7727,0.0003099,14.98309308,87
55662,STARLINK-5479,1 55662U 23021AL  26027.03930011  .00000517  00000-0  52177-4 0  9995,2 55662  69.9988 269.1731 0002951 270.8414  89.2407 14.97522708163057,69.9988,583.7422352730957,269.1731,270.8414,0.0002951,14.97522708,-1
55663,STARLINK-5473,1 55663U 23021AM  26027.08985802 -.00016328  00000-0 -13685-2 0  9997,2 55663  69.9966 269.3285 0002043 298.4506  61.6447 14.98199829163042,69.9966,581.0154698226871,269.3285,298.4506,0.0002043,14.98199829,136
55664,STARLINK-5480,1 55664U 23021AN  26027.10647897  .00001266  00000-0  11392-3 0  9997,2 55664  69.9993 269.3884 0005593 233.6875 126.3768 14.98311040163058,69.9993,583.1387994759456,269.3884,233.6875,0.0005593,14.9831104,-1
55665,STARLINK-5474,1 55665U 23021AP  26027.08552557 -.00000673  00000-0 -48611-4 0  9991,2 55665  69.9996 269.3152 0002737 273.0908  86.9938 14.98332435163042,69.9996,581.0876266512582,269.3152,273.0908,0.0002737,14.98332435,136
55667,STARLINK-5456,1 55667U 23021AR  26027.07300487  .00000037  00000-0  10908-4 0  9995,2 55667  69.9971 269.2702 0002721 265.0778  95.0070 14.98326583163052,69.9971,581.0946081159814,269.2702,265.0778,0.0002721,14.98326583,135
55668,STARLINK-5455,1 55668U 23021AS  26027.10253653 -.00035676  00000-0 -30197-2 0  9991,2 55668  69.9979 269.3731 0002212 289.3218  70.7702 14.98045033163046,69.9979,581.6118452050257,269.3731,289.3218,0.0002212,14.98045033,-1
55669,STARLINK-5459,1 55669U 23021AT  26027.02744329 -.00041562  00000-0 -35262-2 0  9997,2 55669  69.9823 269.4991 0001394 297.2251  62.8765 14.98001967163037,69.9823,581.1764893712439,269.4991,297.2251,0.0001394,14.98001967,85
55670,STARLINK-5423,1 55670U 23021AU  26027.25001157 -.00027232  00000-0 -22830-2 0  9994,2 55670  70.0004 268.8734 0002864 270.3082 279.1691 14.98336764  5658,70.0004,581.1625031643957,268.8734,270.3082,0.0002864,14.98336764,72
55671,STARLINK-5460,1 55671U 23021AV  26026.66011525 -.00000134  00000-0 -34677-5 0  9996,2 55671  69.9988 270.6291 0002939 266.7984  93.2839 14.98332088162983,69.9988,581.2290937770987,270.6291,266.7984,0.0002939,14.98332088,87
55673,STARLINK-5463,1 55673U 23021AX  26027.07718339 -.00001032  00000-0 -78684-4 0  9994,2 55673  69.9983 269.2835 0002785 272.8702  87.2138 14.98324415163052,69.9983,581.1457956800125,269.2835,272.8702,0.0002785,14.98324415,135
55674,STARLINK-5462,1 55674U 23021AY  26027.25001157 -.00036468  00000-0 -30627-2 0  9992,2 55674  70.0003 268.7972 0003029 272.0629 345.0192 14.98351792  5752,70.0003,581.2306948133046,268.7972,272.0629,0.0003029,14.98351792,72
55675,STARLINK-5232,1 55675U 23021AZ  26026.65992168 -.00000188  00000-0 -80003-5 0  9993,2 55675  69.9984 270.2375 0002386 271.0986  88.9899 14.98326272162995,69.9984,580.8627382752858,270.2375,271.0986,0.0002386,14.98326272,86
55676,STARLINK-5300,1 55676U 23021BA  26027.01034980  .00004869  00000-0  41553-3 0  9997,2 55676  69.9988 249.5787 0004415 265.0218  95.0437 14.98333255163539,69.9988,582.2513308609426,249.5787,265.0218,0.0004415,14.98333255,82
55677,STARLINK-5324,1 55677U 23021BB  26025.59571936  .00000950  00000-0  87418-4 0  9994,2 55677  69.9970 253.0659 0002837 256.9180 103.1662 14.98332634163320,69.997,581.156512940933,253.0659,256.918,0.0002837,14.98332634,-1
55690,HORUS 1,1 55690U 23025A   26027.26101876  .00010291  00000-0  43668-3 0  9998,2 55690  97.3613 104.7225 0001083 178.6654 181.4586 15.23282221162590,97.3613,503.8299037843291,104.7225,178.6654,0.0001083,15.23282221,389
55741,STARLINK-5592,1 55741U 23028A   26027.27423798  .00001270  00000-0  11421-3 0  9998,2 55741  70.0045 348.9928 0001456 282.6897  77.4099 14.98333108160026,70.0045,580.1952264129361,348.9928,282.6897,0.0001456,14.98333108,227
55742,STARLINK-5594,1 55742U 23028B   26027.14488562 -.00004791  00000-0 -39394-3 0  9997,2 55742  70.0032 349.3449 0002013 276.4591  83.6339 14.98339909159814,70.0032,580.5613160087793,349.3449,276.4591,0.0002013,14.98339909,-1
55743,STARLINK-5602,1 55743U 23028C   26027.28257068  .00002498  00000-0  21708-3 0  9998,2 55743  70.0028 349.0231 0002918 278.3363  81.7465 14.98333878159838,70.0028,581.2089613613812,349.0231,278.3363,0.0002918,14.98333878,227
55744,STARLINK-5601,1 55744U 23028D   26027.27776448  .00117220  00000-0  94506-2 0  9991,2 55744  70.0039 349.0063 0005761 314.8191  45.2499 14.99203720159833,70.0039,580.4947465169337,349.0063,314.8191,0.0005761,14.9920372,227
55746,STARLINK-5579,1 55746U 23028F   26027.24910944  .00055845  00000-0  46253-2 0  9991,2 55746  70.0019 348.9045 0004104 253.5850 106.4859 14.98540907159832,70.0019,581.3928464662303,348.9045,253.585,0.0004104,14.98540907,227
55747,STARLINK-5539,1 55747U 23028G   26027.26587892  .00001329  00000-0  11916-3 0  9993,2 55747  70.0032 348.9649 0002001 278.2251  81.8681 14.98329084159831,70.0032,580.5864577645883,348.9649,278.2251,0.0002001,14.98329084,227
55748,STARLINK-5580,1 55748U 23028H   26027.26169918  .00000664  00000-0  63442-4 0  9992,2 55748  70.0016 348.9502 0002759 278.4768  81.6079 14.98339089159832,70.0016,581.0823345676856,348.9502,278.4768,0.0002759,14.98339089,227
